0 COSMOS 1249 COOLANT
1 26505U 81021G   13295.07867815  .00000093  00000-0  14429-3 0  4543
2 26505 064.9620 186.7392 0059795 300.2924 059.3313 13.90771654697568
